start=new Date('2023-01-13T00:00:00.000Z').valueOf();
sats=[{"TLE_LINE1":"1 46776U 20074AP  23013.00001157  .00256207  00000-0  13022-2 0  9998","EPHEMERIS_TYPE":"0","RCS_SIZE":"LARGE","BSTAR":"0.00130220000000","DECAY_DATE":null,"RA_OF_ASC_NODE":"353.0192","APOAPSIS":"332.593","PERIOD":"91.127","MEAN_ANOMALY":"92.2926","MEAN_MOTION_DDOT":"0.0000000000000","TLE_LINE2":"2 46776  53.0415 353.0192 0004071  62.1509  92.2926 15.80205173  1304","ELEMENT_SET_NO":"999","SITE":"AFETR","MEAN_MOTION_DOT":"0.00256207","REF_FRAME":"TEME","SEMIMAJOR_AXIS":"6707.997","MEAN_MOTION":"15.80205173","PERIAPSIS":"327.131","GP_ID":"222887630","OBJECT_NAME":"STARLINK-1946","COUNTRY_CODE":"US","ARG_OF_PERICENTER":"62.1509","CENTER_NAME":"EARTH","OBJECT_TYPE":"PAYLOAD","NORAD_CAT_ID":"46776","FILE":"3742227","CLASSIFICATION_TYPE":"U","INCLINATION":"53.0415","LAUNCH_DATE":"2020-10-24","REV_AT_EPOCH":"130","EPOCH":"2023-01-13T00:00:00.999648","MEAN_ELEMENT_THEORY":"SGP4","OBJECT_ID":"2020-074AP","TIME_SYSTEM":"UTC","ECCENTRICITY":"0.00040710"},{"TLE_LINE1":"1 46779U 20074AS  23012.39692751 -.00009333  00000-0 -60896-3 0  9998","EPHEMERIS_TYPE":"0","RCS_SIZE":"LARGE","DECAY_DATE":null,"BSTAR":"-0.00060896000000","RA_OF_ASC_NODE":"84.4679","MEAN_MOTION_DDOT":"0.0000000000000","MEAN_ANOMALY":"316.6627","APOAPSIS":"548.567","PERIOD":"95.594","TLE_LINE2":"2 46779  53.0538  84.4679 0001817  43.4505 316.6627 15.06369018123135","SITE":"AFETR","ELEMENT_SET_NO":"999","REF_FRAME":"TEME","MEAN_MOTION_DOT":"-0.00009333","MEAN_MOTION":"15.06369018","SEMIMAJOR_AXIS":"6925.444","PERIAPSIS":"546.050","GP_ID":"222886382","COUNTRY_CODE":"US","ARG_OF_PERICENTER":"43.4505","OBJECT_NAME":"STARLINK-1798","OBJECT_TYPE":"PAYLOAD","FILE":"3742227","NORAD_CAT_ID":"46779","CENTER_NAME":"EARTH","CLASSIFICATION_TYPE":"U","LAUNCH_DATE":"2020-10-24","REV_AT_EPOCH":"12313","INCLINATION":"53.0538","EPOCH":"2023-01-12T09:31:34.536864","MEAN_ELEMENT_THEORY":"SGP4","OBJECT_ID":"2020-074AS","TIME_SYSTEM":"UTC","ECCENTRICITY":"0.00018170"},{"TLE_LINE1":"1 46780U 20074AT  23012.91664416  .00000552  00000-0  55957-4 0  9990","RCS_SIZE":"LARGE","EPHEMERIS_TYPE":"0","BSTAR":"0.00005595700000","DECAY_DATE":null,"RA_OF_ASC_NODE":"82.1406","APOAPSIS":"548.797","MEAN_ANOMALY":"325.8686","PERIOD":"95.592","MEAN_MOTION_DDOT":"0.0000000000000","TLE_LINE2":"2 46780  53.0534  82.1406 0002276  34.2450 325.8686 15.06397721123211","ELEMENT_SET_NO":"999","SITE":"AFETR","MEAN_MOTION_DOT":"0.00000552","REF_FRAME":"TEME","PERIAPSIS":"545.644","SEMIMAJOR_AXIS":"6925.356","MEAN_MOTION":"15.06397721","GP_ID":"222886632","OBJECT_NAME":"STARLINK-1832","ARG_OF_PERICENTER":"34.2450","COUNTRY_CODE":"US","CENTER_NAME":"EARTH","FILE":"3742227","NORAD_CAT_ID":"46780","OBJECT_TYPE":"PAYLOAD","LAUNCH_DATE":"2020-10-24","REV_AT_EPOCH":"12321","INCLINATION":"53.0534","CLASSIFICATION_TYPE":"U","OBJECT_ID":"2020-074AT","EPOCH":"2023-01-12T21:59:58.055424","MEAN_ELEMENT_THEORY":"SGP4","ECCENTRICITY":"0.00022760","TIME_SYSTEM":"UTC"},{"NORAD_CAT_ID":"46781","FILE":"3742227","OBJECT_TYPE":"PAYLOAD","CENTER_NAME":"EARTH","ARG_OF_PERICENTER":"55.8094","COUNTRY_CODE":"US","OBJECT_NAME":"STARLINK-1834","GP_ID":"222886884","PERIAPSIS":"546.130","MEAN_MOTION":"15.06378379","SEMIMAJOR_AXIS":"6925.415","TIME_SYSTEM":"UTC","ECCENTRICITY":"0.00016610","OBJECT_ID":"2020-074AU","MEAN_ELEMENT_THEORY":"SGP4","EPOCH":"2023-01-12T14:27:29.760192","INCLINATION":"53.0528","LAUNCH_DATE":"2020-10-24","REV_AT_EPOCH":"12303","CLASSIFICATION_TYPE":"U","RA_OF_ASC_NODE":"93.5450","DECAY_DATE":null,"BSTAR":"-0.00018053000000","RCS_SIZE":"LARGE","EPHEMERIS_TYPE":"0","TLE_LINE1":"1 46781U 20074AU  23012.60242778 -.00002968  00000-0 -18053-3 0  9990","REF_FRAME":"TEME","MEAN_MOTION_DOT":"-0.00002968","SITE":"AFETR","ELEMENT_SET_NO":"999","TLE_LINE2":"2 46781  53.0528  93.5450 0001661  55.8094 304.3052 15.06378379123037","MEAN_MOTION_DDOT":"0.0000000000000","MEAN_ANOMALY":"304.3052","APOAPSIS":"548.430","PERIOD":"95.594"},{"RA_OF_ASC_NODE":"82.1843","BSTAR":"-0.00005001900000","DECAY_DATE":null,"EPHEMERIS_TYPE":"0","RCS_SIZE":"LARGE","TLE_LINE1":"1 46782U 20074AV  23012.90558120 -.00001027  00000-0 -50019-4 0  9999","MEAN_MOTION_DOT":"-0.00001027","REF_FRAME":"TEME","ELEMENT_SET_NO":"999","SITE":"AFETR","TLE_LINE2":"2 46782  53.0534  82.1843 0002017  37.3257 322.7872 15.06392086123212","APOAPSIS":"548.635","MEAN_ANOMALY":"322.7872","PERIOD":"95.593","MEAN_MOTION_DDOT":"0.0000000000000","CENTER_NAME":"EARTH","OBJECT_TYPE":"PAYLOAD","NORAD_CAT_ID":"46782","FILE":"3742227","OBJECT_NAME":"STARLINK-1835","COUNTRY_CODE":"US","ARG_OF_PERICENTER":"37.3257","GP_ID":"222887132","MEAN_MOTION":"15.06392086","SEMIMAJOR_AXIS":"6925.373","PERIAPSIS":"545.841","TIME_SYSTEM":"UTC","ECCENTRICITY":"0.00020170","MEAN_ELEMENT_THEORY":"SGP4","EPOCH":"2023-01-12T21:44:02.215680","OBJECT_ID":"2020-074AV","CLASSIFICATION_TYPE":"U","INCLINATION":"53.0534","LAUNCH_DATE":"2020-10-24","REV_AT_EPOCH":"12321"},{"SEMIMAJOR_AXIS":"6925.347","MEAN_MOTION":"15.06400550","PERIAPSIS":"545.562","GP_ID":"222885884","COUNTRY_CODE":"US","ARG_OF_PERICENTER":"36.6879","OBJECT_NAME":"STARLINK-1851","OBJECT_TYPE":"PAYLOAD","NORAD_CAT_ID":"46783","FILE":"3742227","CENTER_NAME":"EARTH","CLASSIFICATION_TYPE":"U","REV_AT_EPOCH":"12321","LAUNCH_DATE":"2020-10-24","INCLINATION":"53.0525","EPOCH":"2023-01-12T22:05:15.584064","MEAN_ELEMENT_THEORY":"SGP4","OBJECT_ID":"2020-074AW","ECCENTRICITY":"0.00023820","TIME_SYSTEM":"UTC","TLE_LINE1":"1 46783U 20074AW  23012.92031926  .00000226  00000-0  34066-4 0  9994","EPHEMERIS_TYPE":"0","RCS_SIZE":"LARGE","DECAY_DATE":null,"BSTAR":"0.00003406600000","RA_OF_ASC_NODE":"82.1117","MEAN_MOTION_DDOT":"0.0000000000000","PERIOD":"95.592","APOAPSIS":"548.861","MEAN_ANOMALY":"323.4273","TLE_LINE2":"2 46783  53.0525  82.1117 0002382  36.6879 323.4273 15.06400550123213","SITE":"AFETR","ELEMENT_SET_NO":"999","REF_FRAME":"TEME","MEAN_MOTION_DOT":"0.00000226"},{"TLE_LINE1":"1 46784U 20074AX  23012.92306315  .00000766  00000-0  70310-4 0  9993","EPHEMERIS_TYPE":"0","RCS_SIZE":"LARGE","DECAY_DATE":null,"BSTAR":"0.00007031000000","RA_OF_ASC_NODE":"82.0890","MEAN_MOTION_DDOT":"0.0000000000000","MEAN_ANOMALY":"310.1536","APOAPSIS":"548.679","PERIOD":"95.592","TLE_LINE2":"2 46784  53.0553  82.0890 0002115  49.9639 310.1536 15.06399747123217","SITE":"AFETR","ELEMENT_SET_NO":"999","REF_FRAME":"TEME","MEAN_MOTION_DOT":"0.00000766","MEAN_MOTION":"15.06399747","SEMIMAJOR_AXIS":"6925.349","PERIAPSIS":"545.750","GP_ID":"222886133","COUNTRY_CODE":"US","ARG_OF_PERICENTER":"49.9639","OBJECT_NAME":"STARLINK-1882","OBJECT_TYPE":"PAYLOAD","NORAD_CAT_ID":"46784","FILE":"3742227","CENTER_NAME":"EARTH","CLASSIFICATION_TYPE":"U","LAUNCH_DATE":"2020-10-24","INCLINATION":"53.0553","REV_AT_EPOCH":"12321","MEAN_ELEMENT_THEORY":"SGP4","EPOCH":"2023-01-12T22:09:12.656160","OBJECT_ID":"2020-074AX","ECCENTRICITY":"0.00021150","TIME_SYSTEM":"UTC"},{"ELEMENT_SET_NO":"999","SITE":"AFETR","MEAN_MOTION_DOT":"0.00028447","REF_FRAME":"TEME","APOAPSIS":"548.362","MEAN_ANOMALY":"300.5455","PERIOD":"95.593","MEAN_MOTION_DDOT":"0.0000000000000","TLE_LINE2":"2 46785  53.0528  82.1597 0001608  59.5692 300.5455 15.06388723123212","BSTAR":"0.00192150000000","DECAY_DATE":null,"RA_OF_ASC_NODE":"82.1597","TLE_LINE1":"1 46785U 20074AY  23012.90928040  .00028447  00000-0  19215-2 0  9998","EPHEMERIS_TYPE":"0","RCS_SIZE":"LARGE","MEAN_ELEMENT_THEORY":"SGP4","EPOCH":"2023-01-12T21:49:21.826560","OBJECT_ID":"2020-074AY","ECCENTRICITY":"0.00016080","TIME_SYSTEM":"UTC","CLASSIFICATION_TYPE":"U","INCLINATION":"53.0528","LAUNCH_DATE":"2020-10-24","REV_AT_EPOCH":"12321","OBJECT_NAME":"STARLINK-1883","COUNTRY_CODE":"US","ARG_OF_PERICENTER":"59.5692","CENTER_NAME":"EARTH","OBJECT_TYPE":"PAYLOAD","NORAD_CAT_ID":"46785","FILE":"3742227","MEAN_MOTION":"15.06388723","SEMIMAJOR_AXIS":"6925.383","PERIAPSIS":"546.135","GP_ID":"222887383"},{"RA_OF_ASC_NODE":"62.5621","BSTAR":"-0.00023420000000","DECAY_DATE":null,"RCS_SIZE":"LARGE","EPHEMERIS_TYPE":"0","TLE_LINE1":"1 46786U 20074AZ  23012.82264282 -.00003768  00000-0 -23420-3 0  9996","MEAN_MOTION_DOT":"-0.00003768","REF_FRAME":"TEME","ELEMENT_SET_NO":"999","SITE":"AFETR","TLE_LINE2":"2 46786  53.0540  62.5621 0001986  49.1416 310.9744 15.06394643123488","APOAPSIS":"548.605","MEAN_ANOMALY":"310.9744","PERIOD":"95.592","MEAN_MOTION_DDOT":"0.0000000000000","CENTER_NAME":"EARTH","FILE":"3742227","NORAD_CAT_ID":"46786","OBJECT_TYPE":"PAYLOAD","OBJECT_NAME":"STARLINK-1893","ARG_OF_PERICENTER":"49.1416","COUNTRY_CODE":"US","GP_ID":"222887631","PERIAPSIS":"545.855","SEMIMAJOR_AXIS":"6925.365","MEAN_MOTION":"15.06394643","ECCENTRICITY":"0.00019860","TIME_SYSTEM":"UTC","OBJECT_ID":"2020-074AZ","MEAN_ELEMENT_THEORY":"SGP4","EPOCH":"2023-01-12T19:44:36.339648","LAUNCH_DATE":"2020-10-24","REV_AT_EPOCH":"12348","INCLINATION":"53.0540","CLASSIFICATION_TYPE":"U"},{"EPHEMERIS_TYPE":"0","RCS_SIZE":"LARGE","TLE_LINE1":"1 46787U 20074BA  23012.54990414 -.00001410  00000-0 -75826-4 0  9999","RA_OF_ASC_NODE":"63.7850","BSTAR":"-0.00007582600000","DECAY_DATE":null,"TLE_LINE2":"2 46787  53.0560  63.7850 0002048  57.5890 302.5297 15.06384363123441","MEAN_ANOMALY":"302.5297","APOAPSIS":"548.680","PERIOD":"95.593","MEAN_MOTION_DDOT":"0.0000000000000","MEAN_MOTION_DOT":"-0.00001410","REF_FRAME":"TEME","ELEMENT_SET_NO":"999","SITE":"AFETR","GP_ID":"222886383","MEAN_MOTION":"15.06384363","SEMIMAJOR_AXIS":"6925.396","PERIAPSIS":"545.843","CENTER_NAME":"EARTH","OBJECT_TYPE":"PAYLOAD","FILE":"3742227","NORAD_CAT_ID":"46787","OBJECT_NAME":"STARLINK-1899","COUNTRY_CODE":"US","ARG_OF_PERICENTER":"57.5890","CLASSIFICATION_TYPE":"U","REV_AT_EPOCH":"12344","LAUNCH_DATE":"2020-10-24","INCLINATION":"53.0560","ECCENTRICITY":"0.00020480","TIME_SYSTEM":"UTC","MEAN_ELEMENT_THEORY":"SGP4","EPOCH":"2023-01-12T13:11:51.717696","OBJECT_ID":"2020-074BA"}];
